NORAD_CAT_ID,OBJECT_NAME,OBJECT_TYPE,EPOCH,MEAN_MOTION,ECCENTRICITY,INCLINATION,RA_OF_ASC_NODE,ARG_OF_PERICENTER,MEAN_ANOMALY,BSTAR,MEAN_MOTION_DOT,MEAN_MOTION_DDOT,TLE_LINE0,TLE_LINE1,TLE_LINE2,SEMIMAJOR_AXIS,PERIOD,APOGEE,PERIGEE,DECAYED
53847.0,STARLINK-4777,PAYLOAD,2024-08-07 16:36:52,15.08854138,0.0001308,53.2174,13.2671,132.6007,227.5096,0.00083785,0.00013077,0.0,0 STARLINK-4777,1 53847U 22114AF  24220.69227159  .00013077  00000-0  83785-3 0  9990,2 53847  53.2174  13.2671 0001308 132.6007 227.5096 15.08854138105024,6917.837,95.437,540.607,538.797,0.0
53847.0,STARLINK-4777,PAYLOAD,2024-08-08 13:16:53,15.08847757,0.0001422,53.2174,9.4074,66.8272,293.2869,0.00054917,8.465e-05,0.0,0 STARLINK-4777,1 53847U 22114AF  24221.55339571  .00008465  00000-0  54917-3 0  9998,2 53847  53.2174   9.4074 0001422  66.8272 293.2869 15.08847757105697,6917.857,95.437,540.705,538.738,0.0
53847.0,STARLINK-4777,PAYLOAD,2024-08-08 16:27:39,15.08847677,0.0001246,53.2173,8.8091,96.697,263.4164,0.00026967,4.007e-05,0.0,0 STARLINK-4777,1 53847U 22114AF  24221.68587287  .00004007  00000-0  26967-3 0  9993,2 53847  53.2173   8.8091 0001246  96.6970 263.4164 15.08847677105179,6917.857,95.437,540.584,538.86,0.0
53847.0,STARLINK-4777,PAYLOAD,2024-08-09 13:07:40,15.08839109,0.0001269,53.2177,4.9405,101.5887,258.5247,3.2785e-05,2.34e-06,0.0,0 STARLINK-4777,1 53847U 22114AF  24222.54699504  .00000234  00000-0  32785-4 0  9999,2 53847  53.2177   4.9405 0001269 101.5887 258.5247 15.08839109105300,6917.883,95.438,540.626,538.87,0.0
53847.0,STARLINK-4777,PAYLOAD,2024-08-09 16:18:26,15.08840068,0.0001218,53.2177,4.3459,103.6091,256.5037,2.5297e-05,1.15e-06,0.0,0 STARLINK-4777,1 53847U 22114AF  24222.67947492  .00000115  00000-0  25297-4 0  9993,2 53847  53.2177   4.3459 0001218 103.6091 256.5037 15.08840068105869,6917.88,95.438,540.588,538.903,0.0
53847.0,STARLINK-4777,PAYLOAD,2024-08-10 14:33:50,15.08837045,0.0001259,53.2176,0.1826,92.9022,267.2115,2.1622e-05,5.6e-07,0.0,0 STARLINK-4777,1 53847U 22114AF  24223.60683811  .00000056  00000-0  21622-4 0  9991,2 53847  53.2176   0.1826 0001259  92.9022 267.2115 15.08837045106003,6917.889,95.438,540.625,538.883,0.0
53847.0,STARLINK-4777,PAYLOAD,2024-08-10 19:19:59,15.08845256,0.00012,53.2184,359.2908,102.3252,257.7875,-7.8534e-06,-4.13e-06,0.0,0 STARLINK-4777,1 53847U 22114AF  24223.80555506 -.00000413  00000-0 -78534-5 0  9996,2 53847  53.2184 359.2908 0001200 102.3252 257.7875 15.08845256105490,6917.864,95.437,540.559,538.899,0.0
53847.0,STARLINK-4777,PAYLOAD,2024-08-11 01:41:31,15.08860143,0.0001179,53.2187,358.1102,100.0022,260.1103,0.00022623,3.316e-05,0.0,0 STARLINK-4777,1 53847U 22114AF  24224.07049813  .00003316  00000-0  22623-3 0  9994,2 53847  53.2187 358.1102 0001179 100.0022 260.1103 15.08860143105531,6917.819,95.436,540.499,538.868,0.0
53847.0,STARLINK-4777,PAYLOAD,2024-08-11 09:38:30,15.08810972,0.0001192,53.2184,356.6154,79.7563,280.3564,-0.00011247,-2.076e-05,0.0,0 STARLINK-4777,1 53847U 22114AF  24224.40174050 -.00002076  00000-0 -11247-3 0  9997,2 53847  53.2184 356.6154 0001192  79.7563 280.3564 15.08810972105580,6917.969,95.439,540.659,539.009,0.0
53847.0,STARLINK-4777,PAYLOAD,2024-08-11 16:00:01,15.08838526,0.0002742,53.2183,355.4317,95.5976,264.5329,0.00013739,1.899e-05,0.0,0 STARLINK-4777,1 53847U 22114AF  24224.66668068  .00001899  00000-0  13739-3 0  9990,2 53847  53.2183 355.4317 0002742  95.5976 264.5329 15.08838526105626,6917.885,95.438,541.647,537.853,0.0
53847.0,STARLINK-4777,PAYLOAD,2024-08-12 09:29:16,15.08821514,0.0001439,53.2172,352.1604,96.0876,264.028,-0.00032772,-5.497e-05,0.0,0 STARLINK-4777,1 53847U 22114AF  24225.39532865 -.00005497  00000-0 -32772-3 0  9994,2 53847  53.2172 352.1604 0001439  96.0876 264.0280 15.08821514105736,6917.937,95.439,540.797,538.806,0.0
53847.0,STARLINK-4777,PAYLOAD,2024-08-12 19:01:32,15.08866035,6.22e-05,53.2166,350.3723,85.5307,274.5757,0.00037672,5.717e-05,0.0,0 STARLINK-4777,1 53847U 22114AF  24225.79274254  .00005717  00000-0  37672-3 0  9990,2 53847  53.2166 350.3723 0000622  85.5307 274.5757 15.08866035105794,6917.801,95.436,540.096,539.236,0.0
53847.0,STARLINK-4777,PAYLOAD,2024-08-13 01:23:04,15.08885565,0.0002485,53.2179,349.1866,64.9973,295.1277,0.00059404,9.19e-05,0.0,0 STARLINK-4777,1 53847U 22114AF  24226.05769551  .00009190  00000-0  59404-3 0  9995,2 53847  53.2179 349.1866 0002485  64.9973 295.1277 15.08885565105831,6917.741,95.435,541.325,537.887,0.0
53847.0,STARLINK-4777,PAYLOAD,2024-08-13 09:20:03,15.08800999,0.0001108,53.2151,347.6984,73.6261,286.4853,-0.00022001,-3.784e-05,0.0,0 STARLINK-4777,1 53847U 22114AF  24226.38893306 -.00003784  00000-0 -22001-3 0  9995,2 53847  53.2151 347.6984 0001108  73.6261 286.4853 15.08800999105889,6918.0,95.44,540.631,539.098,0.0
53847.0,STARLINK-4777,PAYLOAD,2024-08-13 17:16:59,15.08817102,0.0002473,53.2155,346.2102,80.6713,279.4558,-0.00026263,-4.463e-05,0.0,0 STARLINK-4777,1 53847U 22114AF  24226.72013231 -.00004463  00000-0 -26263-3 0  9993,2 53847  53.2155 346.2102 0002473  80.6713 279.4558 15.08817102105930,6917.95,95.439,541.526,538.105,0.0
53847.0,STARLINK-4777,PAYLOAD,2024-08-14 01:13:53,15.08832077,5.56e-05,53.2207,344.7272,70.9823,289.123,-8.7669e-05,-1.682e-05,0.0,0 STARLINK-4777,1 53847U 22114AF  24227.05131913 -.00001682  00000-0 -87669-4 0  9996,2 53847  53.2207 344.7272 0000556  70.9823 289.1230 15.08832077105981,6917.905,95.438,540.154,539.385,0.0
53847.0,STARLINK-4777,PAYLOAD,2024-08-14 13:56:59,15.0883228,9.43e-05,53.2164,342.348,72.5303,287.5793,0.00011952,1.615e-05,0.0,0 STARLINK-4777,1 53847U 22114AF  24227.58124594  .00001615  00000-0  11952-3 0  9996,2 53847  53.2164 342.3480 0000943  72.5303 287.5793 15.08832280106601,6917.904,95.438,540.421,539.117,0.0
53847.0,STARLINK-4777,PAYLOAD,2024-08-14 15:32:22,15.08843244,0.0001169,53.2173,342.0492,82.7875,277.325,0.00013486,1.859e-05,0.0,0 STARLINK-4777,1 53847U 22114AF  24227.64748066  .00001859  00000-0  13486-3 0  9993,2 53847  53.2173 342.0492 0001169  82.7875 277.3250 15.08843244106077,6917.87,95.437,540.544,538.927,0.0
53847.0,STARLINK-4777,PAYLOAD,2024-08-15 01:04:40,15.08855488,0.0001922,53.2174,340.266,73.3209,286.7994,0.00029136,4.354e-05,0.0,0 STARLINK-4777,1 53847U 22114AF  24228.04491816  .00004354  00000-0  29136-3 0  9998,2 53847  53.2174 340.2660 0001922  73.3209 286.7994 15.08855488106138,6917.833,95.437,541.028,538.368,0.0
53847.0,STARLINK-4777,PAYLOAD,2024-08-15 13:47:46,15.08835501,0.0001677,53.2166,337.8847,82.3046,277.8136,0.00027967,4.165e-05,0.0,0 STARLINK-4777,1 53847U 22114AF  24228.57484916  .00004165  00000-0  27967-3 0  9999,2 53847  53.2166 337.8847 0001677  82.3046 277.8136 15.08835501106755,6917.894,95.438,540.919,538.599,0.0
53847.0,STARLINK-4777,PAYLOAD,2024-08-15 15:23:09,15.08842819,0.0001717,53.2183,337.5888,96.4607,263.6581,0.00035444,5.358e-05,0.0,0 STARLINK-4777,1 53847U 22114AF  24228.64108666  .00005358  00000-0  35444-3 0  9996,2 53847  53.2183 337.5888 0001717  96.4607 263.6581 15.08842819106229,6917.872,95.437,540.925,538.549,0.0
53847.0,STARLINK-4777,PAYLOAD,2024-08-16 10:27:47,15.08836997,0.0001118,53.2164,334.0219,91.7226,268.3894,5.1125e-05,5.26e-06,0.0,0 STARLINK-4777,1 53847U 22114AF  24229.43596862  .00000526  00000-0  51125-4 0  9990,2 53847  53.2164 334.0219 0001118  91.7226 268.3894 15.08836997106340,6917.89,95.438,540.528,538.981,0.0
53847.0,STARLINK-4777,PAYLOAD,2024-08-17 16:40:06,15.08854132,8.34e-05,53.2194,328.372,91.6703,268.4385,-0.0004261,-7.065e-05,0.0,0 STARLINK-4777,1 53847U 22114AF  24230.69452161 -.00007065  00000-0 -42610-3 0  9998,2 53847  53.2194 328.3720 0000834  91.6703 268.4385 15.08854132106537,6917.837,95.437,540.279,539.125,0.0
53847.0,STARLINK-4777,PAYLOAD,2024-08-18 05:23:12,15.08836678,0.0001282,53.2194,325.9939,88.3613,271.7526,0.0002121,3.089e-05,0.0,0 STARLINK-4777,1 53847U 22114AF  24231.22445378  .00003089  00000-0  21210-3 0  9993,2 53847  53.2194 325.9939 0001282  88.3613 271.7526 15.08836678106611,6917.891,95.438,540.642,538.869,0.0
53847.0,STARLINK-4777,PAYLOAD,2024-08-18 13:20:07,15.0885063,0.0001551,53.2182,324.5064,106.9983,253.1179,0.00019457,2.811e-05,0.0,0 STARLINK-4777,1 53847U 22114AF  24231.55564670  .00002811  00000-0  19457-3 0  9998,2 53847  53.2182 324.5064 0001551 106.9983 253.1179 15.08850630106665,6917.848,95.437,540.786,538.64,0.0
53847.0,STARLINK-4777,PAYLOAD,2024-08-19 13:10:55,15.08815969,0.0001318,53.2179,320.0468,83.6351,276.4791,-0.00040184,-6.673e-05,0.0,0 STARLINK-4777,1 53847U 22114AF  24232.54925924 -.00006673  00000-0 -40184-3 0  9994,2 53847  53.2179 320.0468 0001318  83.6351 276.4791 15.08815969106812,6917.954,95.439,540.731,538.907,0.0
53847.0,STARLINK-4777,PAYLOAD,2024-08-20 05:04:46,15.08840486,0.0002039,53.2171,317.0711,94.6334,265.4891,8.9778e-05,1.141e-05,0.0,0 STARLINK-4777,1 53847U 22114AF  24233.21165473  .00001141  00000-0  89778-4 0  9990,2 53847  53.2171 317.0711 0002039  94.6334 265.4891 15.08840486106917,6917.879,95.438,541.154,538.333,0.0
53847.0,STARLINK-4777,PAYLOAD,2024-08-20 13:01:41,15.08871852,0.0001501,53.2171,315.583,83.3987,276.7176,0.00086001,0.00013437,0.0,0 STARLINK-4777,1 53847U 22114AF  24233.54284473  .00013437  00000-0  86001-3 0  9994,2 53847  53.2171 315.5830 0001501  83.3987 276.7176 15.08871852106961,6917.783,95.436,540.686,538.61,0.0
53847.0,STARLINK-4777,PAYLOAD,2024-08-21 04:55:33,15.08848628,0.0001489,53.2169,312.6132,95.1863,264.9299,0.00046761,7.164e-05,0.0,0 STARLINK-4777,1 53847U 22114AF  24234.20524777  .00007164  00000-0  46761-3 0  9991,2 53847  53.2169 312.6132 0001489  95.1863 264.9299 15.08848628107062,6917.854,95.437,540.749,538.689,0.0
53847.0,STARLINK-4777,PAYLOAD,2024-08-21 12:52:29,15.08826217,0.0001358,53.2163,311.1235,82.2899,277.8248,-0.00013456,-2.428e-05,0.0,0 STARLINK-4777,1 53847U 22114AF  24234.53645583 -.00002428  00000-0 -13456-3 0  9991,2 53847  53.2163 311.1235 0001358  82.2899 277.8248 15.08826217107118,6917.923,95.438,540.727,538.848,0.0
